{
  "type": "FeatureCollection",
  "features": [
    {
      "type": "Feature",
      "properties": {
        "norad_id": 41772,
        "name": "SKYSAT-C5",
        "group": "resource",
        "lat": -44.525373514095676,
        "lon": 28.065082077424982,
        "alt_km": 468.39623534387647,
        "timestamp": "2025-12-02T21:34:00.930538+00:00",
        "meta_object_name": "SKYSAT-C5",
        "meta_object_id": "2016-058C",
        "meta_epoch": "2025-12-02T09:14:57.684768",
        "meta_mean_motion": 15.35361151,
        "meta_eccentricity": 0.0002912,
        "meta_inclination": 97.0796,
        "meta_ra_of_asc_node": 20.5505,
        "meta_arg_of_pericenter": 122.4171,
        "meta_mean_anomaly": 237.7356,
        "meta_ephemeris_type": 0,
        "meta_classification_type": "U",
        "meta_norad_cat_id": 41772,
        "meta_element_set_no": 999,
        "meta_rev_at_epoch": 51357,
        "meta_bstar": 0.0016477,
        "meta_mean_motion_dot": 0.00056871,
        "meta_mean_motion_ddot": 0,
        "tle_line1": "1 41772U 16058C   25336.38538987  .00056871  00000+0  16477-2 0  9994",
        "tle_line2": "2 41772  97.0796  20.5505 0002912 122.4171 237.7356 15.35361151513575"
      },
      "geometry": {
        "type": "Point",
        "coordinates": [
          28.065082077424982,
          -44.525373514095676
        ]
      }
    },
    {
      "type": "Feature",
      "properties": {
        "norad_id": 41773,
        "name": "SKYSAT-C2",
        "group": "resource",
        "lat": -80.09982094960719,
        "lon": 136.78768666712858,
        "alt_km": 465.7726960996488,
        "timestamp": "2025-12-02T21:34:00.930549+00:00",
        "meta_object_name": "SKYSAT-C2",
        "meta_object_id": "2016-058D",
        "meta_epoch": "2025-12-02T07:55:30.892224",
        "meta_mean_motion": 15.36906729,
        "meta_eccentricity": 0.0005123,
        "meta_inclination": 97.0375,
        "meta_ra_of_asc_node": 1.3012,
        "meta_arg_of_pericenter": 60.3148,
        "meta_mean_anomaly": 299.8607,
        "meta_ephemeris_type": 0,
        "meta_classification_type": "U",
        "meta_norad_cat_id": 41773,
        "meta_element_set_no": 999,
        "meta_rev_at_epoch": 51476,
        "meta_bstar": 0.0003708,
        "meta_mean_motion_dot": 0.00013317,
        "meta_mean_motion_ddot": 0,
        "tle_line1": "1 41773U 16058D   25336.33021866  .00013317  00000+0  37080-3 0  9995",
        "tle_line2": "2 41773  97.0375   1.3012 0005123  60.3148 299.8607 15.36906729514767"
      },
      "geometry": {
        "type": "Point",
        "coordinates": [
          136.78768666712858,
          -80.09982094960719
        ]
      }
    },
    {
      "type": "Feature",
      "properties": {
        "norad_id": 41774,
        "name": "SKYSAT-C3",
        "group": "resource",
        "lat": -22.788672363402448,
        "lon": -171.82276380880717,
        "alt_km": 440.55714604833247,
        "timestamp": "2025-12-02T21:34:00.930559+00:00",
        "meta_object_name": "SKYSAT-C3",
        "meta_object_id": "2016-058E",
        "meta_epoch": "2025-12-02T02:01:26.634720",
        "meta_mean_motion": 15.43828804,
        "meta_eccentricity": 0.00013941,
        "meta_inclination": 96.9318,
        "meta_ra_of_asc_node": 10.3311,
        "meta_arg_of_pericenter": 98.2621,
        "meta_mean_anomaly": 261.8787,
        "meta_ephemeris_type": 0,
        "meta_classification_type": "U",
        "meta_norad_cat_id": 41774,
        "meta_element_set_no": 999,
        "meta_rev_at_epoch": 51561,
        "meta_bstar": 0.000469643,
        "meta_mean_motion_dot": 0.0002123,
        "meta_mean_motion_ddot": 0,
        "tle_line1": "1 41774U 16058E   25336.08433605  .00021230  00000+0  46964-3 0  9990",
        "tle_line2": "2 41774  96.9318  10.3311 0001394  98.2621 261.8787 15.43828804515615"
      },
      "geometry": {
        "type": "Point",
        "coordinates": [
          -171.82276380880717,
          -22.788672363402448
        ]
      }
    },
    {
      "type": "Feature",
      "properties": {
        "norad_id": 41785,
        "name": "ALSAT 1B",
        "group": "resource",
        "lat": 82.21268383439447,
        "lon": -101.27698627550767,
        "alt_km": 641.5926730871724,
        "timestamp": "2025-12-02T21:34:00.930586+00:00",
        "meta_object_name": "ALSAT 1B",
        "meta_object_id": "2016-059C",
        "meta_epoch": "2025-12-02T11:22:16.585248",
        "meta_mean_motion": 14.72057979,
        "meta_eccentricity": 0.0010335,
        "meta_inclination": 97.782,
        "meta_ra_of_asc_node": 348.7065,
        "meta_arg_of_pericenter": 132.9674,
        "meta_mean_anomaly": 227.2402,
        "meta_ephemeris_type": 0,
        "meta_classification_type": "U",
        "meta_norad_cat_id": 41785,
        "meta_element_set_no": 999,
        "meta_rev_at_epoch": 49163,
        "meta_bstar": 0.00011301,
        "meta_mean_motion_dot": 6.64e-06,
        "meta_mean_motion_ddot": 0,
        "tle_line1": "1 41785U 16059C   25336.47380307  .00000664  00000+0  11301-3 0  9991",
        "tle_line2": "2 41785  97.7820 348.7065 0010335 132.9674 227.2402 14.72057979491630"
      },
      "geometry": {
        "type": "Point",
        "coordinates": [
          -101.27698627550767,
          82.21268383439447
        ]
      }
    },
    {
      "type": "Feature",
      "properties": {
        "norad_id": 41787,
        "name": "PATHFINDER 1",
        "group": "resource",
        "lat": -23.044073919462775,
        "lon": -16.52209574430352,
        "alt_km": 689.858394899421,
        "timestamp": "2025-12-02T21:34:00.930598+00:00",
        "meta_object_name": "PATHFINDER 1",
        "meta_object_id": "2016-059E",
        "meta_epoch": "2025-12-02T11:51:11.378880",
        "meta_mean_motion": 14.67292138,
        "meta_eccentricity": 0.0029938,
        "meta_inclination": 97.814,
        "meta_ra_of_asc_node": 339.7431,
        "meta_arg_of_pericenter": 112.3196,
        "meta_mean_anomaly": 248.1187,
        "meta_ephemeris_type": 0,
        "meta_classification_type": "U",
        "meta_norad_cat_id": 41787,
        "meta_element_set_no": 999,
        "meta_rev_at_epoch": 49086,
        "meta_bstar": 0.0002009,
        "meta_mean_motion_dot": 1.094e-05,
        "meta_mean_motion_ddot": 0,
        "tle_line1": "1 41787U 16059E   25336.49388170  .00001094  00000+0  20090-3 0  9994",
        "tle_line2": "2 41787  97.8140 339.7431 0029938 112.3196 248.1187 14.67292138490863"
      },
      "geometry": {
        "type": "Point",
        "coordinates": [
          -16.52209574430352,
          -23.044073919462775
        ]
      }
    },
    {
      "type": "Feature",
      "properties": {
        "norad_id": 41790,
        "name": "SCATSAT 1",
        "group": "resource",
        "lat": -77.53847128519355,
        "lon": 73.8623199538336,
        "alt_km": 659.729403270685,
        "timestamp": "2025-12-02T21:34:00.930608+00:00",
        "meta_object_name": "SCATSAT 1",
        "meta_object_id": "2016-059H",
        "meta_epoch": "2025-12-02T04:04:18.892704",
        "meta_mean_motion": 14.78875526,
        "meta_eccentricity": 0.00557394,
        "meta_inclination": 98.1482,
        "meta_ra_of_asc_node": 32.708,
        "meta_arg_of_pericenter": 161.5626,
        "meta_mean_anomaly": 198.7622,
        "meta_ephemeris_type": 0,
        "meta_classification_type": "U",
        "meta_norad_cat_id": 41790,
        "meta_element_set_no": 999,
        "meta_rev_at_epoch": 7246,
        "meta_bstar": 0.00029277794,
        "meta_mean_motion_dot": 2.157e-05,
        "meta_mean_motion_ddot": 0,
        "tle_line1": "1 41790U 16059H   25336.16966311  .00002157  00000+0  29278-3 0  9999",
        "tle_line2": "2 41790  98.1482  32.7080 0055739 161.5626 198.7622 14.78875526 72468"
      },
      "geometry": {
        "type": "Point",
        "coordinates": [
          73.8623199538336,
          -77.53847128519355
        ]
      }
    },
    {
      "type": "Feature",
      "properties": {
        "norad_id": 41875,
        "name": "GOKTURK 1A",
        "group": "resource",
        "lat": -34.30939486435562,
        "lon": 43.787680049157665,
        "alt_km": 691.1034636063396,
        "timestamp": "2025-12-02T21:34:00.930618+00:00",
        "meta_object_name": "GOKTURK 1A",
        "meta_object_id": "2016-073A",
        "meta_epoch": "2025-12-02T12:22:49.301760",
        "meta_mean_motion": 14.62759687,
        "meta_eccentricity": 0.0001242,
        "meta_inclination": 98.1431,
        "meta_ra_of_asc_node": 229.0173,
        "meta_arg_of_pericenter": 81.8915,
        "meta_mean_anomaly": 278.2427,
        "meta_ephemeris_type": 0,
        "meta_classification_type": "U",
        "meta_norad_cat_id": 41875,
        "meta_element_set_no": 999,
        "meta_rev_at_epoch": 48007,
        "meta_bstar": 0.00015986,
        "meta_mean_motion_dot": 7.68e-06,
        "meta_mean_motion_ddot": 0,
        "tle_line1": "1 41875U 16073A   25336.51584840  .00000768  00000+0  15986-3 0  9998",
        "tle_line2": "2 41875  98.1431 229.0173 0001242  81.8915 278.2427 14.62759687480074"
      },
      "geometry": {
        "type": "Point",
        "coordinates": [
          43.787680049157665,
          -34.30939486435562
        ]
      }
    }
  ]
}